IRIDIUM 106             
1 41917U 17003A   25271.88215637  .00000547  00000+0  18816-3 0  9992
2 41917  86.4034 197.6864 0002593  73.4050 286.7430 14.34217864455754
IRIDIUM 103             
1 41918U 17003B   25272.21831099  .00000476  00000+0  16290-3 0  9992
2 41918  86.4034 197.4474 0002593  90.0306 270.1187 14.34217693455823
IRIDIUM 109             
1 41919U 17003C   25272.22465560  .00000288  00000+0  95818-4 0  9995
2 41919  86.4036 197.4995 0002199  87.2989 272.8459 14.34218497455791
IRIDIUM 102             
1 41920U 17003D   25272.26270087  .00000683  00000+0  23666-3 0  9999
2 41920  86.4030 197.4136 0002204  87.0061 273.1387 14.34215492455886
IRIDIUM 105             
1 41921U 17003E   25272.09402694  .00000539  00000+0  18536-3 0  9992
2 41921  86.4039 165.9990 0002222  86.5729 273.5721 14.34217855457714
IRIDIUM 104             
1 41922U 17003F   25272.27539501  .00000376  00000+0  12707-3 0  9994
2 41922  86.4038 197.4465 0002170  93.4830 266.6614 14.34219156455878
IRIDIUM 114             
1 41923U 17003G   25272.21196816  .00000422  00000+0  14376-3 0  9993
2 41923  86.4033 197.4573 0002323  84.5039 275.6422 14.34220305455848
IRIDIUM 108             
1 41924U 17003H   25272.24025952  .00000180  00000+0  57279-4 0  9990
2 41924  86.4033 165.8327 0002053  80.6189 279.5238 14.34218415457702
